name,kind,country,city,address,longitude,latitude,NumOfDoctor,General,Intern,Resident,Specialist
가톨릭대학교인천성모병원,상급종합,인천,인천부평구,인천광역시 부평구 동수로 56 (부평동),126.7248987,37.4848309,318,1,22,62,233
강북삼성병원,상급종합,서울,종로구,서울특별시 종로구 새문안로 29 (평동),126.96775,37.5684083,386,5,30,129,222
건국대학교병원,상급종합,서울,광진구,서울특별시 광진구 능동로 120-1 (화양동),127.0718276,37.5403764,432,3,37,159,233
경북대학교병원,상급종합,대구,대구중구,"대구광역시 중구 동덕로 130 (삼덕동2가, 경북대학교병원)",128.604125,35.866774,509,5,79,198,227
경상대학교병원,상급종합,경남,진주시,경상남도 진주시 강남로 79 (칠암동),128.0956717,35.1763252,313,1,32,97,183
경희대학교병원,상급종합,서울,동대문구,서울특별시 동대문구 경희대로 23 (회기동),127.051852,37.5941195,465,3,60,172,230
계명대학교동산병원,상급종합,대구,대구달서구,대구광역시 달서구 달구벌대로 1035 (신당동),128.4801315,35.8538856,423,3,38,145,237
고려대학교의과대학부속구로병원,상급종합,서울,구로구,서울특별시 구로구 구로동로 148 고려대부속구로병원 (구로동),126.8848701,37.492052,541,1,38,176,326
고려대학교의과대학부속안산병원,상급종합,경기,안산단원구,경기도 안산시 단원구 적금로 123 (고잔동),126.8249033,37.3185144,365,4,28,107,226
고신대학교복음병원,상급종합,부산,부산서구,부산광역시 서구 감천로 262 (암남동),129.0139595,35.0809636,315,2,31,80,202
단국대학교의과대학부속병원,상급종합,충남,천안동남구,충청남도 천안시 동남구 망향로 201  (안서동),127.172575,36.8415904,336,1,26,111,198
대구가톨릭대학교병원,상급종합,대구,대구남구,대구광역시 남구 두류공원로17길 33 (대명동),128.5679969,35.8436078,345,2,33,108,202
동아대학교병원,상급종합,부산,부산서구,부산광역시 서구 대신공원로 26 (동대신동3가),129.017425,35.12019,351,5,27,102,217
부산대학교병원,상급종합,부산,부산서구,부산광역시 서구 구덕로 179 (아미동1가),129.0188032,35.1008477,545,2,55,183,305
분당서울대학교병원,상급종합,경기,성남분당구,"경기도 성남시 분당구 구미로173번길 82 (구미동, 분당서울대학교병원)",127.1232509,37.3519807,750,8,3,210,529
삼성서울병원,상급종합,서울,강남구,"서울특별시 강남구 일원로 81 (일원동, 삼성의료원)",127.0851508,37.4882978,1356,21,103,399,833
서울대학교병원,상급종합,서울,종로구,서울특별시 종로구 대학로 101 (연건동),126.9990168,37.5797151,1586,15,180,565,826
순천향대학교부속 천안병원,상급종합,충남,천안동남구,"충청남도 천안시 동남구 순천향6길 31  5동 (봉명동,순천향대학교병원)",127.1358588,36.8027381,335,1,27,95,212
순천향대학교부속부천병원,상급종합,경기,부천시,경기도 부천시 조마루로 170 (중동),126.7629514,37.4986043,363,1,33,100,229
아주대학교병원,상급종합,경기,수원영통구,경기도 수원시 영통구 월드컵로 164 (원천동),127.0476764,37.2793927,676,18,63,195,400
양산부산대학교병원,상급종합,경남,양산시,경상남도 양산시 물금읍 금오로 20 (),129.0057274,35.3281501,438,1,29,110,298
연세대학교 원주세브란스기독병원,상급종합,강원,원주시,강원도 원주시 일산로 20-0  (일산동),127.9456639,37.3490013,434,15,43,138,238
연세대학교의과대학 강남세브란스병원,상급종합,서울,강남구,서울특별시 강남구 언주로 211 강남세브란스병원 (도곡동),127.0462683,37.4929296,578,0,43,208,327
영남대학교병원,상급종합,대구,대구남구,대구광역시 남구 현충로 170 (대명동),128.58205,35.848107,381,2,39,125,215
원광대학교병원,상급종합,전북,익산시,전라북도 익산시 무왕로 895 (신동),126.9595793,35.9646389,294,3,24,95,172
의료법인 길의료재단 길병원,상급종합,인천,인천남동구,인천광역시 남동구 남동대로774번길 21-0 의료법인길의료재단길병원,126.7092258,37.452171,551,9,54,162,326
인제대학교부산백병원,상급종합,부산,부산진구,"부산광역시 부산진구 복지로 75, 진사로83번길 75 진사로83번길 81, 1층(일부), 3층 (개금동)",129.0208609,35.1455173,376,2,36,117,221
인하대학교의과대학부속병원,상급종합,인천,인천중구,인천광역시 중구 인항로 27 (신흥동3가),126.6340955,37.4586786,422,2,38,142,240
재단법인아산사회복지재단 서울아산병원,상급종합,서울,송파구,서울특별시 송파구 올림픽로43길 88 서울아산병원 (풍납동),127.107935,37.5265762,1645,22,131,447,1045
전남대학교병원,상급종합,광주,광주동구,광주광역시 동구 제봉로 42  (학동),126.9219641,35.1419213,483,1,49,177,256
전북대학교병원,상급종합,전북,전주덕진구,전라북도 전주시 덕진구 건지로 20  (금암동),127.1411626,35.8470974,416,0,47,134,235
조선대학교병원,상급종합,광주,광주동구,광주광역시 동구 필문대로 365  (학동),126.9261468,35.1390538,302,0,29,115,158
중앙대학교병원,상급종합,서울,동작구,서울특별시 동작구 흑석로 102 (흑석동),126.9607839,37.5067481,398,1,41,135,221
충남대학교병원,상급종합,대전,대전중구,대전광역시 중구 문화로 282 (대사동),127.415363,36.316908,469,0,44,159,266
충북대학교병원,상급종합,충북,청주서원구,충청북도 청주시 서원구 1순환로 776-0 충북대학교병원,127.4614843,36.6242237,316,5,24,92,195
칠곡경북대학교병원,상급종합,대구,대구북구,대구광역시 북구 호국로 807 칠곡경북대학교병원 (학정동),128.5646727,35.9564207,200,0,0,16,184
학교법인 고려중앙학원 고려대학교의과대학부속병원(안암병원),상급종합,서울,성북구,서울특별시 성북구 고려대로 73 고려대병원 (안암동5가),127.0263537,37.5870165,536,4,43,175,314
학교법인가톨릭학원가톨릭대학교서울성모병원,상급종합,서울,서초구,서울특별시 서초구 반포대로 222 (반포동),127.0051154,37.5009444,832,3,63,230,536
학교법인연세대학교의과대학세브란스병원,상급종합,서울,서대문구,서울특별시 서대문구 연세로 50-1 (신촌동),126.9408265,37.5623446,1175,6,129,215,825
한림대학교성심병원,상급종합,경기,안양동안구,경기도 안양시 동안구 관평로170번길 22 (평촌동),126.9620529,37.3917575,397,1,33,132,231
한양대학교병원,상급종합,서울,성동구,서울특별시 성동구 왕십리로 222-1 (사근동),127.0441339,37.5596569,416,4,52,145,215
화순전남대학교병원,상급종합,전남,화순군,전라남도 화순군 화순읍 서양로 322 (),127.0025,35.0594333,247,2,19,73,153
(의)나사렛의료재단 나사렛국제병원,종합병원,인천,인천연수구,인천광역시 연수구 먼우금로 98-   (동춘동),126.6704928,37.407958,53,5,0,0,48
(의)영문의료재단 다보스병원,종합병원,경기,용인처인구,경기도 용인시 처인구 백옥대로1082번길 18 다보스종합병원 (김량장동),127.2114648,37.2314883,32,0,0,0,32
(재)미리내천주성삼성직수도회천주성삼병원,종합병원,대구,대구수성구,"대구광역시 수성구 달구벌대로 3190 (신매동, 천주성삼병원)",128.7057175,35.8402416,23,1,0,0,22
KS병원,종합병원,광주,광주광산구,광주광역시 광산구 왕버들로 220  (수완동),126.8331484,35.1979238,40,1,0,0,39
가톨릭관동대학교 국제성모병원,종합병원,인천,인천서구,인천광역시 서구 심곡로100번길 25-0 인천국제성모병원,126.6836103,37.5424165,187,1,19,19,148
가톨릭대학교 성빈센트병원,종합병원,경기,수원팔달구,경기도 수원시 팔달구 중부대로 93 (지동),127.0274271,37.2779855,373,6,29,93,245
가톨릭대학교 여의도성모병원,종합병원,서울,영등포구,서울특별시 영등포구 63로 10 여의도성모병원 (여의도동),126.9367517,37.5183253,257,0,23,84,150
가톨릭대학교 은평성모병원,종합병원,서울,은평구,서울특별시 은평구 통일로 1021 (진관동),126.9161912,37.6334945,248,8,13,41,186
가톨릭대학교부천성모병원,종합병원,경기,부천시,경기도 부천시 소사로 327 가톨릭대학교 부천성모병원 (소사동),126.7924167,37.4871165,255,4,22,75,154
가톨릭대학교의정부성모병원,종합병원,경기,의정부시,경기도 의정부시 천보로 271 의정부성모병원 (금오동),127.0777625,37.7587045,282,0,30,78,174
강남병원,종합병원,경기,용인기흥구,경기도 용인시 기흥구 중부대로 411 강남병원 (신갈동),127.1115072,37.2737515,42,1,0,0,41
강동경희대학교의대병원,종합병원,서울,강동구,서울특별시 강동구 동남로 892 (상일동),127.1573794,37.5534484,296,1,23,85,187
강릉아산병원,종합병원,강원,강릉시,강원도 강릉시 사천면 방동길 38 (),128.8578411,37.8184325,215,1,0,55,159
강원대학교병원,종합병원,강원,춘천시,강원도 춘천시 백령로 156-  (효자동),127.744891,37.8751611,257,3,35,58,161
강원도 삼척의료원,종합병원,강원,삼척시,강원도 삼척시 오십천로 418 삼척의료원,129.1638017,37.4403018,26,1,0,0,25
강원도 영월의료원,종합병원,강원,영월군,강원도 영월군 영월읍 중앙1로 59,128.4652388,37.1864525,18,3,0,0,15
강원도 원주의료원,종합병원,강원,원주시,강원도 원주시 서원대로 387  (개운동),127.949225,37.332608,33,2,0,0,31
강원도강릉의료원,종합병원,강원,강릉시,강원도 강릉시 경강로 2007 2007,128.8888317,37.7492828,18,3,0,0,15
강원도속초의료원,종합병원,강원,속초시,강원도 속초시 영랑호반길 3 (영랑동),128.5892485,38.2164607,27,2,0,0,25
강일병원,종합병원,경남,김해시,"경상남도 김해시 가락로 359 (구산동, 강일병원)",128.8696709,35.2566817,29,0,0,0,29
건국대학교 충주병원,종합병원,충북,충주시,충청북도 충주시 국원대로 82  (교현동),127.9288169,36.9789801,89,1,0,16,72
검단탑병원,종합병원,인천,인천서구,인천광역시 서구 청마로19번길 5-  (당하동),126.6710215,37.5924931,45,2,0,0,43
경기도의료원 수원병원,종합병원,경기,수원장안구,경기도 수원시 장안구 수성로245번길 69 (정자동),126.9963375,37.2918917,25,2,0,0,23
경기도의료원 안성병원,종합병원,경기,안성시,경기도 안성시 남파로 95 (당왕동),127.2603668,37.0173531,27,0,0,0,27
경기도의료원 이천병원,종합병원,경기,이천시,경기도 이천시 경충대로 2742 (관고동),127.4325729,37.2827618,25,0,0,0,25
경기도의료원의정부병원,종합병원,경기,의정부시,경기도 의정부시 흥선로 142 (의정부동),127.0425004,37.741161,24,3,0,0,21
경기도의료원파주병원,종합병원,경기,파주시,경기도 파주시 중앙로 207 경기도립의료원파주병원 (금촌동),126.7801503,37.7550649,34,3,0,1,30
경기도의료원포천병원,종합병원,경기,포천시,경기도 포천시 포천로 1648 (신읍동),127.19828,37.9033163,22,1,0,0,21
경상남도마산의료원,종합병원,경남,창원마산합포구,경상남도 창원시 마산합포구 3·15대로 231 (중앙동3가),128.5655967,35.1992371,23,1,0,0,22
경상북도김천의료원,종합병원,경북,김천시,경상북도 김천시 모암길 24  (모암동),128.1264391,36.1227232,40,4,0,0,36
경상북도안동의료원,종합병원,경북,안동시,경상북도 안동시 태사2길 55  (북문동),128.7321116,36.5682206,28,1,0,0,27
경상북도포항의료원,종합병원,경북,포항북구,경상북도 포항시 북구 용흥로 36  (용흥동),129.3549409,36.0348814,21,3,0,0,18
경찰병원,종합병원,서울,송파구,서울특별시 송파구 송이로 123 국립경찰병원 (가락동),127.123509,37.4963836,122,1,14,38,69
계명대학교대구동산병원,종합병원,대구,대구중구,대구광역시 중구 달성로 56 계명대학교대구동산병원 (동산동),128.5831323,35.8694728,32,0,0,0,32
곽병원,종합병원,대구,대구중구,대구광역시 중구 국채보상로 531 (수동),128.588613,35.870924,22,2,0,0,20
광명성애병원,종합병원,경기,광명시,경기도 광명시 디지털로 36 광명성애병원 (철산동),126.8713502,37.4736659,107,2,9,26,70
광양사랑병원,종합병원,전남,광양시,전라남도 광양시 공영로 71  (중동),127.6969657,34.9361846,20,0,0,0,20
광주기독병원,종합병원,광주,광주남구,광주광역시 남구 양림로 37  (양림동),126.911875,35.136665,137,1,16,29,91
광주병원,종합병원,광주,광주북구,광주광역시 북구 면앙로139번길 51  (두암동),126.9281408,35.178903,37,1,0,0,36
광주보훈병원,종합병원,광주,광주광산구,광주광역시 광산구 첨단월봉로 99  (산월동),126.849672,35.2079032,94,4,6,20,64
광주수완병원,종합병원,광주,광주광산구,광주광역시 광산구 임방울대로 370  (수완동),126.8241888,35.193096,18,0,0,0,18
광주씨티병원,종합병원,광주,광주남구,광주광역시 남구 서문대로654번길 5  (진월동),126.8994848,35.1177147,24,0,0,0,24
광주일곡병원,종합병원,광주,광주북구,광주광역시 북구 양일로 309  (일곡동),126.8976135,35.2028543,23,0,0,0,23
광주한국병원,종합병원,광주,광주서구,광주광역시 서구 월드컵4강로 223,126.8688067,35.15618284,25,0,0,0,25
광주현대병원,종합병원,광주,광주북구,광주광역시 북구 설죽로 291  (용봉동),126.897925,35.185676,32,1,0,0,31
광주희망병원,종합병원,광주,광주북구,광주광역시 북구 하서로 429  (용두동),126.8747341,35.2134937,24,0,0,0,24
구로성심병원,종합병원,서울,구로구,서울특별시 구로구 경인로 427 구로성심병원 (고척동),126.8664159,37.4996715,31,0,0,0,31
구미강동병원,종합병원,경북,구미시,경상북도 구미시 인동20길 46  (진평동),128.4227832,36.0962038,36,3,0,0,33
구포성심병원,종합병원,부산,부산북구,부산광역시 북구 낙동대로 1786 (구포동),129.0047235,35.2097132,31,1,0,0,30
국군수도병원,종합병원,경기,성남분당구,경기도 성남시 분당구 새마을로177번길 81 (율동),127.1490752,37.3923712,123,0,0,2,121
국립암센터,종합병원,경기,고양일산동구,경기도 고양시 일산동구 일산로 323 (마두동),126.7834097,37.6632301,230,1,0,29,200
국립중앙의료원,종합병원,서울,중구,서울특별시 중구 을지로 245 (을지로6가),127.005671,37.5672138,216,4,26,57,129
국민건강보험공단일산병원,종합병원,경기,고양일산동구,"경기도 고양시 일산동구 일산로 100 (백석동,백석1동 1241외1필지 4층)",126.7930401,37.6454754,247,1,4,42,200
근로복지공단 대전병원,종합병원,대전,대전대덕구,대전광역시 대덕구 계족로 637  (법동),127.4285488,36.3683976,27,3,0,0,24
근로복지공단 순천병원,종합병원,전남,순천시,전라남도 순천시 조례1길 24  (조례동),127.5249267,34.9611351,24,3,0,0,21
근로복지공단 창원병원,종합병원,경남,창원성산구,경상남도 창원시 성산구 창원대로 721 (중앙동),128.6717512,35.2187539,32,7,0,0,25
근로복지공단 태백병원,종합병원,강원,태백시,강원도 태백시 보드미길 8 (장성동),129.0043366,37.1040964,19,2,0,0,17
근로복지공단안산병원,종합병원,경기,안산상록구,경기도 안산시 상록구 구룡로 87 근로복지공단안산병원 (일동),126.874139,37.3167269,40,0,0,0,40
근로복지공단인천병원,종합병원,인천,인천부평구,인천광역시 부평구 무네미로 446-  (구산동),126.7536333,37.4767018,34,1,0,0,33
나사렛종합병원,종합병원,대구,대구달서구,대구광역시 달서구 월배로 97 나사렛병원 (진천동),128.5250991,35.814713,26,0,0,0,26
나주종합병원,종합병원,전남,나주시,전라남도 나주시 영산로 5419 나주종합병원,126.7213975,35.0363159,25,2,0,0,23
남양주 한양병원,종합병원,경기,남양주시,경기도 남양주시 오남읍 양지로 47-55 47,127.2043933,37.6823474,32,1,0,0,31
남양주나눔병원,종합병원,경기,남양주시,경기도 남양주시 오남읍 진건오남로797번길 9 (),127.2015641,37.6980156,16,1,0,0,15
노원을지대학교병원,종합병원,서울,노원구,서울특별시 노원구 한글비석로 68 을지병원 (하계동),127.0699355,37.6364794,253,2,22,76,153
녹색병원,종합병원,서울,중랑구,서울특별시 중랑구 사가정로49길 53 (면목동),127.0860738,37.5835731,37,4,0,0,33
당진종합병원,종합병원,충남,당진시,충청남도 당진시 반촌로 5-15  (시곡동),126.6843802,36.9044521,27,0,0,0,27
대구가톨릭대학교 칠곡가톨릭병원,종합병원,대구,대구북구,대구광역시 북구 칠곡중앙대로 440 (읍내동),128.549289,35.9348896,24,1,0,0,23
대구의료원,종합병원,대구,대구서구,대구광역시 서구 평리로 157 (중리동),128.540587,35.85964,51,1,0,17,33
대구파티마병원,종합병원,대구,대구동구,대구광역시 동구 아양로 99 (신암동),128.6244071,35.8842611,220,3,22,57,138
대동병원,종합병원,부산,부산동래구,부산광역시 동래구 충렬대로 187 (명륜동),129.0802016,35.2042463,81,6,5,6,64
대림성모병원,종합병원,서울,영등포구,"서울특별시 영등포구 시흥대로 657 (대림동, 대림성모병원)",126.9072208,37.4906979,42,1,0,0,41
대아의료재단한도병원,종합병원,경기,안산단원구,경기도 안산시 단원구 선부광장로 103 (선부동),126.8076244,37.3340615,16,0,0,0,16
대자인병원,종합병원,전북,전주덕진구,전라북도 전주시 덕진구 견훤로 390 (우아동3가),127.1533991,35.8459811,88,3,0,0,85
대전보훈병원,종합병원,대전,대전대덕구,대전광역시 대덕구 대청로82번길 147 147,127.4396939,36.4473164,52,5,0,6,41
대전한국병원,종합병원,대전,대전동구,대전광역시 동구 동서대로 1672 (성남동),127.4358,36.3482369,31,2,0,0,29
대진의료재단 분당제생병원,종합병원,경기,성남분당구,경기도 성남시 분당구 서현로180번길 20 (서현동),127.1217783,37.3882035,204,4,8,56,136
대청병원,종합병원,대전,대전서구,대전광역시 서구 계백로 1322 (정림동),127.3705837,36.3081922,28,3,0,0,25
더블유병원,종합병원,대구,대구달서구,대구광역시 달서구 달구벌대로 1632 (감삼동),128.5449673,35.8526417,31,0,0,0,31
동국대학교의과대학경주병원,종합병원,경북,경주시,경상북도 경주시 동대로 87  (석장동),129.1966582,35.8583076,110,2,0,26,82
동국대학교일산불교병원,종합병원,경기,고양일산동구,"경기도 고양시 일산동구 동국로 27 (식사동, 동국대학교일산병원)",126.8064233,37.6763969,256,2,28,74,152
동남권원자력의학원,종합병원,부산,부산기장군,부산광역시 기장군 장안읍 좌동길 40 (),129.2435492,35.3214002,56,0,1,0,55
동래봉생병원,종합병원,부산,부산동래구,부산광역시 동래구 안연로109번길 27 (안락동),129.096142,35.1969249,40,1,0,0,39
동아병원,종합병원,광주,광주남구,광주광역시 남구 대남대로 238  (백운동),126.899838,35.13469,31,0,0,0,31
드림병원,종합병원,대구,대구남구,대구광역시 남구 대명로 153 (대명동),128.574456,35.839628,29,1,0,0,28
메디플렉스 세종병원,종합병원,인천,인천계양구,인천광역시 계양구 계양문화로 20-   (작전동),126.7368717,37.5324735,87,2,1,0,84
명지성모병원,종합병원,서울,영등포구,서울특별시 영등포구 도림로 156 명지성모병원 (대림동),126.8992778,37.4938833,34,0,0,0,34
목포기독병원,종합병원,전남,목포시,전라남도 목포시 백년대로 303  (상동),126.4206,34.8045333,40,1,0,0,39
목포시의료원,종합병원,전남,목포시,전라남도 목포시 이로로 18  (용해동),126.4053627,34.8039839,21,2,0,0,19
목포한국병원,종합병원,전남,목포시,전라남도 목포시 영산로 483  (상동),126.4164223,34.8092997,81,2,0,0,79
미래로21병원,종합병원,광주,광주서구,광주광역시 서구 화운로 1  (화정동),126.8852867,35.1410324,29,1,0,0,28
미즈메디병원,종합병원,서울,강서구,서울특별시 강서구 강서로 295 (내발산동),126.8359357,37.5522178,55,0,0,0,55
베데스다병원,종합병원,경남,양산시,경상남도 양산시 신기로 28 (신기동),129.0436024,35.3532708,14,1,0,0,13
부민병원,종합병원,서울,강서구,서울특별시 강서구 공항대로 389 부민병원 (등촌동),126.8509273,37.556866,53,1,0,0,52
부산광역시의료원,종합병원,부산,부산연제구,"부산광역시 연제구 월드컵대로 359 (거제동, 1동, 5동일부)",129.0592351,35.1872822,82,0,8,18,56
부산성모병원(재단법인 천주교부산교구유지재단),종합병원,부산,부산남구,부산광역시 남구 용호로232번길 25-14 (용호동),129.109125,35.1104571,87,1,2,18,66
부안성모병원,종합병원,전북,부안군,전라북도 부안군 부안읍 오정2길 24 (),126.7344047,35.7248858,15,1,0,0,14
부천대성병원,종합병원,경기,부천시,"경기도 부천시 부천로 91 (심곡동, 부천대성병원)",126.7841872,37.4925524,12,1,0,0,11
부천우리병원,종합병원,경기,부천시,경기도 부천시 소사로 726 지하4층~지상5층 (원종동),126.8052027,37.5208668,18,1,0,0,17
부평세림병원,종합병원,인천,인천부평구,인천광역시 부평구 부평대로 175-   (청천동),126.7199858,37.506872,52,2,3,9,38
비에스종합병원,종합병원,인천,인천강화군,인천광역시 강화군 강화읍 충렬사로 31-0,126.4859916,37.7360483,21,1,0,0,20
비에이치에스한서병원,종합병원,부산,부산수영구,부산광역시 수영구 수영로 615 (광안동),129.1131037,35.16088,55,1,0,5,49
빛가람종합병원,종합병원,전남,나주시,전라남도 나주시 정보화길 49-0 (빛가람동),126.7988049,35.0242217,11,0,0,0,11
빛고을전남대학교병원,종합병원,광주,광주남구,광주광역시 남구 덕남길 80 (덕남동),126.8963045,35.0943936,27,0,2,0,25
삼육부산병원,종합병원,부산,부산서구,부산광역시 서구 대티로 170 (서대신동2가),129.011113,35.112774,45,3,1,4,37
삼육서울병원,종합병원,서울,동대문구,서울특별시 동대문구 망우로 82 (휘경동),127.0653066,37.5879909,112,2,6,21,83
삼일병원,종합병원,대구,대구달서구,대구광역시 달서구 월배로 446 (송현동),128.5541817,35.833148,18,0,0,0,18
상무병원,종합병원,광주,광주서구,광주광역시 서구 상무자유로 181-7  (치평동),126.8538803,35.1527509,25,0,0,0,25
상주적십자병원,종합병원,경북,상주시,경상북도 상주시 상서문로 53  (남성동),128.1555556,36.4146221,24,1,0,0,23
서광병원,종합병원,광주,광주서구,광주광역시 서구 금화로59번길 6 (금호동),126.8557303,35.1325949,24,0,0,0,24
서남대학교병원,종합병원,광주,광주동구,광주광역시 동구 천변우로 415  (불로동),126.9150205,35.1447273,0,0,0,0,0
서산중앙병원,종합병원,충남,서산시,충청남도 서산시 수석산업로 5 (수석동),126.5034636,36.7810108,31,2,0,0,29
서울산보람병원,종합병원,울산,울산울주군,울산광역시 울주군 삼남면 중평로 53 (),129.1207349,35.5600045,23,1,0,0,22
서울성심병원,종합병원,서울,동대문구,서울특별시 동대문구 왕산로 259 서울성심병원 (청량리동),127.0497296,37.5843076,45,1,0,12,32
서울적십자병원,종합병원,서울,종로구,서울특별시 종로구 새문안로 9 적십자병원 (평동),126.9669974,37.5671805,52,4,4,8,36
서울특별시 동부병원,종합병원,서울,동대문구,서울특별시 동대문구 무학로 124 (용두동),127.031341,37.5753681,34,4,0,0,30
서울특별시보라매병원,종합병원,서울,동작구,서울특별시 동작구 보라매로5길 20 (신대방동),126.9239058,37.4934414,229,2,1,11,215
서울특별시서남병원,종합병원,서울,양천구,서울특별시 양천구 신정이펜1로 20 (신정동),126.8331531,37.5120195,34,1,0,0,33
서울특별시서울의료원,종합병원,서울,중랑구,서울특별시 중랑구 신내로 156 (신내동),127.0978309,37.6132762,220,1,26,70,123
선한병원,종합병원,광주,광주서구,광주광역시 서구 무진대로 975-0  (광천동),126.8869987,35.1615633,22,1,0,0,21
성가롤로병원,종합병원,전남,순천시,전라남도 순천시 순광로 221  (조례동),127.5437074,34.9647334,107,2,0,5,100
성남시의료원,종합병원,경기,성남수정구,경기도 성남시 수정구 수정로171번길 10 성남시의료원 (태평동),127.1391,37.4450622,70,1,0,0,69
성남중앙병원,종합병원,경기,성남중원구,경기도 성남시 중원구 산성대로476번길 12 (금광동),127.1619932,37.4528497,31,2,0,0,29
성심의료재단강동성심병원,종합병원,서울,강동구,서울특별시 강동구 성안로 150 (길동),127.135378,37.5359971,242,0,18,85,139
성애의료재단 성애병원,종합병원,서울,영등포구,"서울특별시 영등포구 여의대방로53길 22 (신길동, 성애병원)",126.9225003,37.5120274,86,2,7,13,64
세란병원,종합병원,서울,종로구,서울특별시 종로구 통일로 256 (무악동),126.9574607,37.5751835,42,1,0,0,41
세종충남대학교병원,종합병원,세종시,세종시,세종특별자치시 보듬7로 20 세종충남대학교병원,127.2581036,36.51952392,101,0,0,0,101
속초보광병원,종합병원,강원,속초시,강원도 속초시 중앙로 11-0 속초보광병원,128.5783901,38.1980014,20,2,0,0,18
순천의료재단 정병원,종합병원,경기,성남수정구,경기도 성남시 수정구 수정로 76 지하3~10층 (수진동),127.1290046,37.4398589,28,0,0,0,28
순천중앙병원,종합병원,전남,순천시,전라남도 순천시 장명로 5  (장천동),127.4844458,34.9514574,11,1,0,0,10
순천향대학교 부속 구미병원,종합병원,경북,구미시,경상북도 구미시 1공단로 179  (공단동),128.3827377,36.1029182,77,4,0,7,66
순천향대학교 부속 서울병원,종합병원,서울,용산구,서울특별시 용산구 대사관로 59 (한남동),127.0042579,37.533804,354,2,37,118,197
신가병원,종합병원,광주,광주광산구,광주광역시 광산구 목련로 316  (신가동),126.8296527,35.1774148,26,0,0,0,26
씨엠병원,종합병원,서울,영등포구,"서울특별시 영등포구 영등포로36길 13 (영등포동4가, 충무병원)",126.9038757,37.5188095,28,1,0,0,27
아산충무병원,종합병원,충남,아산시,충청남도 아산시 문화로 381  (모종동),127.0198062,36.7792648,56,0,0,0,56
안동성소병원,종합병원,경북,안동시,경상북도 안동시 서동문로 99  (금곡동),128.7228172,36.5672423,58,1,0,0,57
안성성모병원,종합병원,경기,안성시,경기도 안성시 시장길 58 (서인동),127.2709213,37.0062179,34,0,0,0,34
에스포항병원,종합병원,경북,포항남구,경상북도 포항시 남구 희망대로 352  (이동),129.3314023,36.0348245,34,0,0,0,34
에이치플러스 양지병원,종합병원,서울,관악구,서울특별시 관악구 남부순환로 1636 양지병원 (신림동),126.9325692,37.4841536,101,4,3,5,89
엔케이(NK)세종병원,종합병원,세종시,세종시,세종특별자치시 한누리대로 161 세종시 NK리움힐 상가 1~8층 (나성동),127.2622483,36.4796372,14,0,0,0,14
여수전남병원,종합병원,전남,여수시,전라남도 여수시 좌수영로 49 (광무동),127.728018,34.7450673,38,2,0,3,33
여천전남병원,종합병원,전남,여수시,전라남도 여수시 무선로 95  (선원동),127.6543239,34.7691121,42,2,0,0,40
연세대학교 의과대학 용인세브란스병원,종합병원,경기,용인기흥구,경기도 용인시 기흥구 동백죽전대로 363 (중동),127.1482641,37.2707922,190,3,0,1,186
연세에스병원,종합병원,경남,창원진해구,경상남도 창원시 진해구 해원로32번길 13 (이동),128.6981494,35.1549332,23,1,0,0,22
영광종합병원,종합병원,전남,영광군,전라남도 영광군 영광읍 와룡로 3 (),126.4989779,35.2844615,25,1,0,0,24
영남대학교의과대학부속영천병원,종합병원,경북,영천시,경상북도 영천시 오수1길 10  (오수동),128.913212,35.957285,22,1,0,0,21
영도병원,종합병원,부산,부산영도구,부산광역시 영도구 태종로 85 (대교동2가),129.0405236,35.0922416,32,0,1,2,29
영주적십자병원,종합병원,경북,영주시,경상북도 영주시 대학로 327-0 영주적십자병원,128.6040043,36.8252568,19,3,0,0,16
오산한국병원,종합병원,경기,오산시,경기도 오산시 밀머리로1번길 16 (원동),127.075277,37.1413334,66,3,1,3,59
온누리병원,종합병원,인천,인천서구,인천광역시 서구 완정로 199 199,126.6543044,37.6028198,20,2,0,0,18
우리들병원,종합병원,서울,강서구,서울특별시 강서구 하늘길 70 (과해동),126.7963265,37.5620454,23,0,0,0,23
운암한국병원,종합병원,광주,광주북구,광주광역시 북구 북문대로 191  (운암동),126.8696694,35.1850041,23,1,0,0,22
울산엘리야병원,종합병원,울산,울산북구,울산광역시 북구 호계로 285 (호계동),129.3506003,35.6289468,14,0,0,0,14
웅상중앙병원,종합병원,경남,양산시,경상남도 양산시 서창로 59 (명동),129.1645729,35.4064091,27,1,0,0,26
원광대학교 산본병원,종합병원,경기,군포시,경기도 군포시 산본로 321 (산본동),126.9336147,37.3594127,80,0,4,19,57
의)근원의료재단경산중앙병원,종합병원,경북,경산시,경상북도 경산시 경안로 11  (백천동),128.7401,35.8086667,31,2,0,0,29
의료법인 갈렌의료재단 박병원,종합병원,경기,평택시,경기도 평택시 송탄로 33 (장당동),127.057003,37.048256,20,0,0,0,20
의료법인 강릉동인병원,종합병원,강원,강릉시,강원도 강릉시 강릉대로419번길 42  (포남동),128.90735,37.77435,44,1,0,0,43
의료법인 거명의료재단 영광기독병원,종합병원,전남,영광군,전라남도 영광군 영광읍 신남로 265 (),126.510877,35.274938,15,1,0,0,14
의료법인 거붕 백병원,종합병원,경남,거제시,경상남도 거제시 계룡로5길 14 (상동동),128.6261659,34.8736095,31,3,0,0,28
의료법인 건명의료재단 진천성모병원,종합병원,충북,진천군,충청북도 진천군 진천읍 중앙북로 36-0 진천성모병원,127.4404044,36.8585629,22,1,0,0,21
의료법인 광혜의료재단 광혜병원,종합병원,부산,부산동래구,"부산광역시 동래구 충렬대로 96 (온천동, 광혜병원)",129.0711482,35.2070105,24,2,0,0,22
의료법인 남촌의료재단 시화병원,종합병원,경기,시흥시,경기도 시흥시 옥구천서로 337 시화병원 (정왕동),126.7245975,37.3529459,48,1,0,0,47
의료법인 녹산의료재단동수원병원,종합병원,경기,수원팔달구,경기도 수원시 팔달구 중부대로 165 (우만동),127.0344741,37.2781302,78,3,0,6,69
의료법인 녹향의료재단 신천연합병원,종합병원,경기,시흥시,"경기도 시흥시 복지로 57 복지로 61, 2층 (대야동)",126.7894932,37.4445152,19,0,0,0,19
의료법인 대우의료재단대우병원,종합병원,경남,거제시,경상남도 거제시 두모길 16 의료법인 대우의료재단대우병원 (두모동),128.7220923,34.8719577,29,2,0,0,27
의료법인 동강의료재단 동강병원,종합병원,울산,울산중구,울산광역시 중구 태화로 239 (태화동),129.3020785,35.553448,95,3,0,4,88
의료법인 동강의료재단 동천동강병원,종합병원,울산,울산중구,"울산광역시 중구 외솔큰길 215 (남외동, 동천동강병원)",129.3504382,35.568536,19,0,0,0,19
의료법인 동해동인병원,종합병원,강원,동해시,강원도 동해시 하평로 26 (평릉동),129.1074625,37.5299417,20,2,0,0,18
의료법인 명인의료재단 화홍병원,종합병원,경기,수원권선구,경기도 수원시 권선구 호매실로90번길 98 (호매실동),126.9638917,37.2601428,25,0,0,0,25
의료법인 박애의료재단 박애병원,종합병원,경기,평택시,경기도 평택시 평택2로20번길 3 (평택동),127.0890776,36.9930388,24,1,0,0,23
의료법인 백제병원,종합병원,충남,논산시,충청남도 논산시 시민로294번길 14  (취암동),127.0944739,36.192193,49,2,0,0,47
의료법인 서구의료재단 여수성심병원,종합병원,전남,여수시,전라남도 여수시 둔덕5길 19 (둔덕동),127.6987125,34.7659083,0,0,0,0,0
의료법인 석경의료재단 센트럴병원,종합병원,경기,시흥시,"경기도 시흥시 공단1대로 237 (정왕동, 센트럴 병원)",126.7281267,37.3369084,42,3,0,0,39
의료법인 성념의료재단맑은샘병원,종합병원,경남,거제시,경상남도 거제시 연초면 거제대로 4477 (),128.6436423,34.8977185,16,2,0,0,14
의료법인 성수의료재단 인천백병원,종합병원,인천,인천동구,인천광역시 동구 샛골로 214 (송림동),126.6458376,37.4817037,25,1,0,0,24
의료법인 송은의료재단 울산시티병원,종합병원,울산,울산북구,울산광역시 북구 산업로 1007 (연암동),129.3590343,35.5828446,32,2,0,0,30
의료법인 양진의료재단 평택성모병원,종합병원,경기,평택시,경기도 평택시 평택로 284 (세교동),127.0743384,37.0084078,62,0,0,0,62
의료법인 영동의료재단 의정부백병원,종합병원,경기,의정부시,경기도 의정부시 금신로 322 (신곡동),127.0622375,37.7453263,23,2,0,0,21
의료법인 영서의료재단 천안충무병원,종합병원,충남,천안서북구,충청남도 천안시 서북구 다가말3길 8  (쌍용동),127.1315016,36.7974023,60,4,0,0,56
의료법인 영훈의료재단 대전선병원,종합병원,대전,대전중구,대전광역시 중구 목중로 29 (목동),127.4104139,36.3360669,91,1,7,17,66
의료법인 예당의료재단 예산종합병원,종합병원,충남,예산군,충청남도 예산군 예산읍 금오대로 94 (),126.8379717,36.6910744,11,0,0,0,11
의료법인 오성의료재단 동군산병원,종합병원,전북,군산시,전라북도 군산시 조촌로 149 (조촌동),126.7372167,35.9773474,48,2,0,0,46
의료법인 온그룹의료재단 온종합병원,종합병원,부산,부산진구,"부산광역시 부산진구 가야대로 721 719, 767 (당감동)",129.0498801,35.157851,67,3,2,3,59
의료법인 우범의료재단 장흥종합병원,종합병원,전남,장흥군,전라남도 장흥군 장흥읍 흥성로 74 74,126.9108915,34.6771753,11,0,0,0,11
의료법인 원광의료재단 원광종합병원,종합병원,경기,화성시,경기도 화성시 화산북로 21 (송산동),127.0079849,37.2101716,17,0,0,0,17
의료법인 은성의료재단 좋은강안병원,종합병원,부산,부산수영구,부산광역시 수영구 수영로 493 (남천동),129.1106162,35.1500632,88,3,5,6,74
의료법인 은성의료재단 좋은삼정병원,종합병원,울산,울산남구,울산광역시 남구 북부순환도로 51 (무거동),129.2688243,35.5528955,29,2,0,0,27
의료법인 은혜와감사의료재단 화성중앙종합병원,종합병원,경기,화성시,경기도 화성시 향남읍 발안로 5 (),126.9108361,37.1312957,17,2,0,0,15
의료법인 인당의료재단 부민병원,종합병원,부산,부산북구,부산광역시 북구 만덕대로 59 (덕천동),129.0112115,35.2119276,62,1,2,4,55
의료법인 인당의료재단 해운대부민병원,종합병원,부산,부산해운대구,부산광역시 해운대구 해운대로 584 (우동),129.1556545,35.1614208,47,0,0,0,47
의료법인 인천사랑병원,종합병원,인천,인천미추홀구,인천광역시 미추홀구 미추홀대로 726-0 인천사랑병원,126.6807094,37.462204,71,4,0,6,61
의료법인 인화재단 한국병원,종합병원,충북,청주상당구,충청북도 청주시 상당구 단재로 106 (영운동),127.496538,36.619507,80,10,3,2,65
의료법인 자산의료재단 제천서울병원,종합병원,충북,제천시,충청북도 제천시 숭문로 57  (서부동),128.2062355,37.138611,25,2,0,0,23
의료법인 정산의료재단 효성병원,종합병원,충북,청주상당구,충청북도 청주시 상당구 쇠내로 16  (금천동),127.4953372,36.6244786,51,3,0,1,47
의료법인 정안의료재단 중앙병원,종합병원,울산,울산남구,울산광역시 남구 문수로480번길 10 (신정동),129.3052035,35.5315232,36,3,0,0,33
의료법인 중앙의료재단 중앙병원,종합병원,제주,제주시,제주특별자치도 제주시 월랑로 91-0 중앙병원,126.4704807,33.4923212,31,0,0,0,31
의료법인 청구성심병원,종합병원,서울,은평구,서울특별시 은평구 통일로 873 (갈현동),126.9197006,37.6208615,23,1,0,0,22
의료법인 플러스의료재단 단원병원,종합병원,경기,안산단원구,경기도 안산시 단원구 원포공원1로 20 동의성단원병원,126.8135158,37.30016761,47,0,0,0,47
의료법인 한마음국제의료재단 한마음창원병원,종합병원,경남,창원성산구,경상남도 창원시 성산구 원이대로682번길 21 (상남동),128.6865915,35.2212186,62,1,0,0,61
의료법인 혜인의료재단 한국병원,종합병원,제주,제주시,제주특별자치도 제주시 서광로 193  (삼도일동),126.517062,33.500233,35,1,0,0,34
의료법인 힐링의료재단 옥천성모병원,종합병원,충북,옥천군,충청북도 옥천군 옥천읍 성왕로 1195-0 (),127.5720868,36.3134813,17,1,0,0,16
의료법인갑을의료재단갑을장유병원,종합병원,경남,김해시,경상남도 김해시 장유로 167-13 (부곡동),128.8056169,35.2086652,25,0,0,0,25
의료법인구의료재단 구병원,종합병원,대구,대구달서구,대구광역시 달서구 감삼북길 141 (감삼동),128.5413832,35.8506394,33,1,0,0,32
의료법인기독교한국침례회의료재단왈레스기념 침례병원,종합병원,부산,부산금정구,부산광역시 금정구 금단로 200 (남산동),129.093593,35.2672656,0,0,0,0,0
의료법인대송의료재단 무안병원,종합병원,전남,무안군,전라남도 무안군 무안읍 몽탄로 65 (),126.4893985,34.9916302,19,0,0,0,19
의료법인대인의료재단 다니엘종합병원,종합병원,경기,부천시,경기도 부천시 중동로 361 다니엘종합병원 (약대동),126.7695002,37.5123285,25,2,0,0,23
의료법인덕산의료재단김천제일병원,종합병원,경북,김천시,경상북도 김천시 신음1길 12  (신음동),128.1187923,36.1354003,36,0,0,0,36
의료법인동신의료재단 동신병원,종합병원,서울,서대문구,서울특별시 서대문구 연희로 272 동신병원 본관동 (홍은동),126.9364251,37.5813323,21,2,0,0,19
의료법인동춘의료재단문경제일병원,종합병원,경북,문경시,경상북도 문경시 당교3길 25  (모전동),128.189225,36.58444,34,1,0,0,33
의료법인루가의료재단 나은병원,종합병원,인천,인천서구,인천광역시 서구 원적로 23-  23,126.6797423,37.4891168,69,3,0,0,66
의료법인명지의료재단명지병원,종합병원,경기,고양덕양구,경기도 고양시 덕양구 화수로14번길 55 (화정동),126.8317297,37.6424757,240,3,36,47,154
의료법인명지의료재단명지병원,종합병원,충북,제천시,충청북도 제천시 내토로 991 (고암동),128.233951,37.1634681,34,2,0,0,32
의료법인목포구암의료재단 목포중앙병원,종합병원,전남,목포시,전라남도 목포시 영산로 623  (석현동),126.421025,34.8213917,44,1,0,0,43
의료법인백송의료재단 굿모닝병원,종합병원,경기,평택시,경기도 평택시 중앙로 338 (합정동),127.1204114,36.9906277,94,1,0,0,93
의료법인보원의료재단 경희의료원교육협력 중앙병원,종합병원,경남,김해시,경상남도 김해시 분성로 94-8 (외동),128.8570753,35.2307339,54,1,3,0,50
의료법인삼백의료재단상주성모병원,종합병원,경북,상주시,경상북도 상주시 냉림서성길 7  (냉림동),128.159725,36.4203096,22,0,0,0,22
의료법인석영의료재단창원제일종합병원,종합병원,경남,창원마산합포구,경상남도 창원시 마산합포구 3·15대로 238 (중앙동3가),128.5676,35.199085,17,2,0,0,15
의료법인석천재단고창병원,종합병원,전북,고창군,전라북도 고창군 고창읍 화신1길 9 (),126.6933531,35.4364278,15,1,0,0,14
의료법인성광의료재단일산차병원,종합병원,경기,고양일산동구,"경기도 고양시 일산동구 중앙로 1205 지하1층(일부),지하2층,지하4층(일부) 1층(일부),4~5층,6층(일부)7~10층호 (장항동)",126.7757374,37.6541317,71,1,0,0,70
의료법인성세의료재단 뉴 성민병원,종합병원,인천,인천서구,인천광역시 서구 신석로 70-  70,126.6698666,37.5097941,29,0,0,0,29
의료법인성화의료재단  대한병원,종합병원,서울,강북구,"서울특별시 강북구 도봉로 301 (수유동, 대한병원)",127.0226914,37.6354747,15,2,0,0,13
의료법인숭인의료재단 김해복음병원,종합병원,경남,김해시,경상남도 김해시 활천로 33 (삼정동),128.8931625,35.2306263,23,1,0,0,22
의료법인안동병원,종합병원,경북,안동시,경상북도 안동시 앙실로 11  (수상동),128.7010976,36.5467408,100,1,0,0,99
의료법인영경의료재단전주병원,종합병원,전북,전주완산구,"전라북도 전주시 완산구 한두평3길 13 (중화산동2가, 전주병원)",127.1248117,35.8152449,33,0,0,0,33
의료법인영성의료재단 고흥종합병원,종합병원,전남,고흥군,전라남도 고흥군 고흥읍 고흥로 1935 (),127.2939625,34.6210654,17,2,0,0,15
의료법인영훈의료재단 유성선병원,종합병원,대전,대전유성구,대전광역시 유성구 북유성대로 93 (지족동),127.3249507,36.3751715,91,3,0,0,88
의료법인우리의료재단김포우리병원,종합병원,경기,김포시,경기도 김포시 감암로 11 김포우리병원 (걸포동),126.7107331,37.6323325,81,2,2,6,71
의료법인은성의료재단좋은삼선병원,종합병원,부산,부산사상구,부산광역시 사상구 가야대로 326 (주례동),129.0081663,35.1505,75,2,6,7,60
의료법인은성의료재단좋은선린병원,종합병원,경북,포항북구,경상북도 포항시 북구 대신로 43  (대신동),129.3670367,36.0482631,28,4,0,0,24
의료법인인봉의료재단뉴고려병원,종합병원,경기,김포시,경기도 김포시 김포한강3로 283 뉴고려병원 (장기동),126.6602289,37.6409296,63,1,0,0,62
의료법인일심의료재단우리병원,종합병원,경기,포천시,경기도 포천시 소흘읍 호국로 661 661,127.1481116,37.8274803,31,0,0,0,31
의료법인정화의료재단 김원묵기념봉생병원,종합병원,부산,부산동구,"부산광역시 동구 중앙대로 401 (좌천동, 봉생병원)",129.0501832,35.1310012,64,0,0,7,57
의료법인청아의료재단청아병원,종합병원,경남,창원마산회원구,경상남도 창원시 마산회원구 내서읍 광려천서로 67 (청아병원),128.50965,35.248035,20,1,0,0,19
의료법인청언의료재단 순천제일병원,종합병원,전남,순천시,전라남도 순천시 기적의도서관1길 3  (조례동),127.524175,34.9549263,13,0,0,0,13
의료법인풍산의료재단동부제일병원,종합병원,서울,중랑구,"서울특별시 중랑구 망우로 511 (망우동, 동부제일병원)",127.1090094,37.6007085,19,1,0,0,18
의료법인한국의료재단 순천한국병원,종합병원,전남,순천시,전라남도 순천시 우명길 42  (연향동),127.5122885,34.9477666,23,0,0,0,23
의료법인한마음의료재단하나병원,종합병원,충북,청주흥덕구,충청북도 청주시 흥덕구 2순환로 1262-0 하나병원,127.4308627,36.6235047,68,4,2,5,57
의료법인한성재단포항세명기독병원,종합병원,경북,포항남구,경상북도 포항시 남구 포스코대로 351  (대도동),129.3622256,36.0177172,114,4,0,0,110
의료법인한전의료재단 한일병원,종합병원,서울,도봉구,서울특별시 도봉구 우이천로 308 (쌍문동),127.0291228,37.6461401,117,2,3,27,85
의료법인합포의료재단에스엠지연세병원,종합병원,경남,창원마산합포구,"경상남도 창원시 마산합포구 3·15대로 76 (월남동2가, 합포의료재단)",128.5616013,35.1863148,41,2,0,0,39
의료법인해민의료재단 세안종합병원,종합병원,전남,목포시,전라남도 목포시 고하대로 795-2 (연산동),126.3802331,34.8168192,16,1,0,0,15
의료법인행촌의료재단 해남종합병원,종합병원,전남,해남군,전라남도 해남군 해남읍 해남로 45 (),126.6127915,34.5717972,25,1,0,0,24
의료법인혜명심의료재단 울산병원,종합병원,울산,울산남구,울산광역시 남구 월평로171번길 13 (신정동),129.3231103,35.5462649,42,1,0,0,41
의료법인혜원의료재단세종병원,종합병원,경기,부천시,"경기도 부천시 호현로489번길 28 (소사본동, 세종병원)",126.791225,37.4810179,87,1,5,9,72
의료법인환명의료재단 조은금강병원,종합병원,경남,김해시,경상남도 김해시 김해대로 1814-37 (삼계동),128.8615328,35.2623214,31,1,0,0,30
의산의료재단 강릉고려병원,종합병원,강원,강릉시,강원도 강릉시 옥가로 30 30,128.8998047,37.7590068,15,2,0,0,13
이화여자대학교의과대학부속목동병원,종합병원,서울,양천구,서울특별시 양천구 안양천로 1071 (목동),126.8862379,37.5362859,392,2,38,149,203
이화여자대학교의과대학부속서울병원,종합병원,서울,강서구,서울특별시 강서구 공항대로 260 이화여자대학교 제2부속병원 (마곡동),126.8362668,37.5572629,182,1,0,0,181
익산병원,종합병원,전북,익산시,전라북도 익산시 무왕로 969 (신동),126.9665159,35.9616504,41,2,0,0,39
인산의료재단 메트로병원,종합병원,경기,안양만안구,"경기도 안양시 만안구 명학로33번길 8 (안양동, 메트로병원)",126.9352309,37.3786666,16,1,0,0,15
인제대학교 상계백병원,종합병원,서울,노원구,서울특별시 노원구 동일로 1342 상계백병원 (상계동),127.0631233,37.6485282,308,1,27,124,156
인제대학교 서울백병원,종합병원,서울,중구,서울특별시 중구 마른내로 9-9 (저동2가),126.9886722,37.56482718,99,1,4,24,70
인제대학교 해운대백병원,종합병원,부산,부산해운대구,부산광역시 해운대구 해운대로 875 (좌동),129.182013,35.173443,316,1,23,81,211
인제대학교일산백병원,종합병원,경기,고양일산서구,경기도 고양시 일산서구 주화로 170 (대화동),126.7504331,37.6743138,300,1,26,109,164
인천광역시의료원,종합병원,인천,인천동구,인천광역시 동구 방축로 217-  217,126.66875,37.4787429,41,1,0,0,40
인천기독병원,종합병원,인천,인천중구,인천광역시 중구 답동로30번길 10-  (율목동),126.6321078,37.471217,21,3,0,0,18
재단법인 아산사회복지재단 부속 보령아산병원,종합병원,충남,보령시,충청남도 보령시 죽성로 136  (죽정동),126.6228522,36.3811282,17,0,0,0,17
재단법인 아산사회복지재단 정읍아산병원,종합병원,전북,정읍시,전라북도 정읍시 충정로 606-22 (용계동),126.8234125,35.5888321,24,0,0,0,24
재단법인대구포교성베네딕도수녀회창원파티마병원,종합병원,경남,창원의창구,경상남도 창원시 의창구 창이대로 45-45 (명서동),128.645913,35.237293,105,0,10,1,94
재단법인베스티안재단베스티안병원,종합병원,충북,청주흥덕구,충청북도 청주시 흥덕구 오송읍 오송생명1로 191-0 (),127.3216409,36.6364294,15,1,0,0,14
재단법인베스티안재단베스티안서울병원,종합병원,서울,강남구,"서울특별시 강남구 도곡로 429 (대치동, 베스티안병원 2층일부 제외)",127.0572145,37.49805,11,0,0,0,11
재단법인예수병원유지재단예수병원,종합병원,전북,전주완산구,"전라북도 전주시 완산구 서원로 365 (중화산동1가, 예수병원)",127.1332292,35.8143917,222,3,20,55,144
재단법인천주교부산교구유지재단 메리놀병원,종합병원,부산,부산중구,부산광역시 중구 중구로 121 (대청동4가),129.0324148,35.1076838,78,0,3,17,58
재단법인한호기독교선교회 일신기독병원,종합병원,부산,부산동구,부산광역시 동구 정공단로 27 (좌천동),129.0543811,35.135783,40,1,0,0,39
전라북도 군산의료원,종합병원,전북,군산시,"전라북도 군산시 의료원로 27 (지곡동, 군산의료원)",126.7117407,35.9549526,55,2,4,6,43
전라북도 남원의료원,종합병원,전북,남원시,전라북도 남원시 충정로 365 (고죽동),127.4073171,35.4318756,40,3,0,3,34
전주고려병원,종합병원,전북,전주덕진구,전라북도 전주시 덕진구 안덕원로 367 (산정동),127.1670378,35.8398807,18,0,0,0,18
제일병원,종합병원,경남,진주시,경상남도 진주시 진주대로 885 (강남동),128.0902544,35.1794723,56,0,0,0,56
제주대학교병원,종합병원,제주,제주시,제주특별자치도 제주시 아란13길 15-  제주대학교병원 (아라일동),126.5452109,33.4671105,247,1,22,50,174
제주특별자치도 서귀포의료원,종합병원,제주,서귀포시,제주특별자치도 서귀포시 장수로 47 (동홍동),126.5639216,33.2555355,44,0,0,0,44
제주한라병원,종합병원,제주,제주시,제주특별자치도 제주시 도령로 65 (연동),126.4850403,33.489961,134,3,0,15,116
조은오산병원,종합병원,경기,오산시,경기도 오산시 오산로 307 (오산동),127.0682104,37.1542524,19,0,0,0,19
좋은문화병원,종합병원,부산,부산동구,부산광역시 동구 범일로 119 (범일동),129.0590772,35.140867,70,7,0,1,62
진주고려병원,종합병원,경남,진주시,"경상남도 진주시 동진로 2 (칠암동, 진주고려병원)",128.0920865,35.1784916,32,2,0,0,30
차의과학대학교 강남차병원,종합병원,서울,강남구,"서울특별시 강남구 논현로 566 (역삼동, 역삼동 606-4)",127.035055,37.5067941,91,0,0,6,85
차의과학대학교부속구미차병원,종합병원,경북,구미시,경상북도 구미시 신시로10길 12  (형곡동),128.3405414,36.1145325,72,0,0,0,72
차의과학대학교분당차병원,종합병원,경기,성남분당구,경기도 성남시 분당구 야탑로 59 (야탑동),127.1254535,37.4102384,483,7,38,150,288
참조은병원,종합병원,경기,광주시,경기도 광주시 광주대로 45 (경안동),127.2602408,37.4109444,61,3,0,0,58
창원경상대학교병원,종합병원,경남,창원성산구,"경상남도 창원시 성산구 삼정자로 11 (성주동, 창원경상대학교병원)",128.7078463,35.1990873,160,0,3,12,145
첨단종합병원,종합병원,광주,광주광산구,광주광역시 광산구 첨단중앙로170번길 59  (쌍암동),126.8453041,35.2211088,47,2,0,0,45
청주성모병원,종합병원,충북,청주청원구,충청북도 청주시 청원구 주성로 173-19  (주중동),127.4856059,36.673536,103,0,15,11,77
추병원,종합병원,경기,의정부시,경기도 의정부시 평화로 650 (의정부동),127.0451394,37.749733,37,0,2,4,31
충청남도 공주의료원,종합병원,충남,공주시,충청남도 공주시 무령로 77 (웅진동),127.1094762,36.458987,29,2,0,0,27
충청남도 서산의료원,종합병원,충남,서산시,충청남도 서산시 중앙로 149  (석림동),126.4652578,36.7755835,29,1,0,0,28
충청남도 천안의료원,종합병원,충남,천안동남구,충청남도 천안시 동남구 충절로 537  (삼룡동),127.1791797,36.7756271,26,2,0,0,24
충청남도 홍성의료원,종합병원,충남,홍성군,충청남도 홍성군 홍성읍 조양로 224 (),126.674413,36.599349,42,1,0,0,41
충청북도 청주의료원,종합병원,충북,청주서원구,충청북도 청주시 서원구 흥덕로 48  (사직동),127.4730326,36.6402026,50,5,0,0,45
충청북도 충주의료원,종합병원,충북,충주시,충청북도 충주시 안림로 239-50  (안림동),127.9706116,36.9796506,29,2,0,0,27
포항성모병원,종합병원,경북,포항남구,경상북도 포항시 남구 대잠동길 17 (대잠동),129.3399527,36.0159003,97,1,0,7,89
하남성심병원,종합병원,광주,광주광산구,광주광역시 광산구 용아로 259  (산정동),126.8009264,35.1665416,25,1,0,0,24
학교법인 건양교육재단 건양대학교병원,종합병원,대전,대전서구,대전광역시 서구 관저동로 158 (관저동),127.342613,36.306642,271,2,30,83,156
학교법인 울산공업학원 울산대학교병원,종합병원,울산,울산동구,울산광역시 동구 방어진순환도로 877 울산대학교병원 (전하동),129.4289116,35.5200702,357,5,30,90,232
학교법인 을지학원 대전을지대학교병원,종합병원,대전,대전서구,대전광역시 서구 둔산서로 95 (둔산동),127.3819903,36.3552891,246,1,19,78,148
학교법인 춘해병원,종합병원,부산,부산진구,부산광역시 부산진구 중앙대로 605 (범천동),129.0583709,35.146981,25,2,0,0,23
학교법인)동의병원,종합병원,부산,부산진구,부산광역시 부산진구 양정로 62 지상2ㆍ3ㆍ10층 각 일부/ 지하1ㆍ지상1ㆍ지상4~지상8층 전층 (양정동),129.076514,35.1698203,87,5,1,16,65
학교법인가톨릭학원 가톨릭대학교 대전성모병원,종합병원,대전,대전중구,대전광역시 중구 대흥로 64 (대흥동),127.420163,36.323042,206,1,22,50,133
학교법인성균관대학삼성창원병원,종합병원,경남,창원마산회원구,"경상남도 창원시 마산회원구 팔용로 158-158 (합성동, 삼성창원병원)",128.5920245,35.2428774,287,3,36,55,193
한국보훈복지의료공단 대구보훈병원,종합병원,대구,대구달서구,대구광역시 달서구 월곡로 60 (도원동),128.5519785,35.8028206,68,5,0,7,56
한국보훈복지의료공단 부산보훈병원,종합병원,부산,부산사상구,부산광역시 사상구 백양대로 420 (주례동),129.006575,35.1533821,94,2,6,18,68
한국보훈복지의료공단 중앙보훈병원,종합병원,서울,강동구,서울특별시 강동구 진황도로61길 53 (둔촌동),127.1481606,37.530634,311,0,35,100,176
한국원자력의학원원자력병원,종합병원,서울,노원구,서울특별시 노원구 노원로 75 한국원자력의학원 (공릉동),127.0826965,37.6288213,192,6,27,39,120
한림대학교 강남성심병원,종합병원,서울,영등포구,"서울특별시 영등포구 신길로 1 (대림동, 강남성심병원)",126.9086527,37.4937262,262,1,26,87,148
한림대학교 한강성심병원,종합병원,서울,영등포구,"서울특별시 영등포구 버드나루로7길 12 (영등포동7가, 한강성심병원)",126.9096811,37.5231702,23,0,0,0,23
한림대학교동탄성심병원,종합병원,경기,화성시,경기도 화성시 큰재봉길 7 (석우동),127.0801288,37.2166284,265,0,28,65,172
한림대학교부속 춘천성심병원,종합병원,강원,춘천시,강원도 춘천시 삭주로 77 77,127.7399592,37.8840791,157,0,11,39,107
한림병원,종합병원,인천,인천계양구,인천광역시 계양구 장제로 722 (작전동),126.7343174,37.5322162,85,3,0,0,82
한마음병원,종합병원,제주,제주시,제주특별자치도 제주시 연신로 52 (이도이동),126.5461481,33.4963547,35,1,0,0,34
한양대학교구리병원,종합병원,경기,구리시,경기도 구리시 경춘로 153 (교문동),127.1324273,37.6012985,234,0,23,72,139
한일병원,종합병원,경남,진주시,"경상남도 진주시 범골로 17 지1,1~5,7층 (충무공동)",128.1286241,35.1669658,29,3,0,0,26
해남우리종합병원,종합병원,전남,해남군,전라남도 해남군 옥천면 해남로 597 (),126.6465633,34.5842521,25,1,0,0,24
해동병원,종합병원,부산,부산영도구,부산광역시 영도구 태종로 133 (봉래동3가),129.043866,35.0919442,29,0,0,0,29
해피뷰병원,종합병원,광주,광주북구,광주광역시 북구 경열로 216-0 해피뷰병원,126.906773,35.1586417,19,0,0,0,19
현대병원,종합병원,경기,남양주시,경기도 남양주시 진접읍 봉현로 21 (),127.179882,37.7154268,67,1,0,0,66
현대유비스병원,종합병원,인천,인천미추홀구,인천광역시 미추홀구 독배로 503-0 현대유비스병원,126.6430071,37.461611,47,2,0,0,45
혜민병원,종합병원,서울,광진구,서울특별시 광진구 자양로 85 (자양동),127.0836246,37.5354079,35,0,0,0,35
홍익병원,종합병원,서울,양천구,서울특별시 양천구 목동로 225 홍익병원본관 (신정동),126.8636551,37.5284838,70,1,3,11,55
홍천아산병원,종합병원,강원,홍천군,강원도 홍천군 홍천읍 산림공원1길 17 17,127.8948538,37.6908303,12,2,0,0,10
효산의료재단 안양샘병원,종합병원,경기,안양만안구,"경기도 안양시 만안구 삼덕로 9 (안양동, 안양샘병원)",126.924394,37.3935234,108,6,5,10,87
효산의료재단 지샘병원,종합병원,경기,군포시,"경기도 군포시 군포로 591 (당동, (G샘병원)군포샘병원)",126.9473164,37.358672,75,2,3,3,67
희명병원,종합병원,서울,금천구,서울특별시 금천구 시흥대로 244 (시흥동),126.9005836,37.4556869,30,1,0,0,29
